0 FENGYUN 1C DEB
1 30766U 99025AUC 13282.36384617  .00000447  00000-0  31218-3 0  1097
2 30766 099.0878 330.7306 0089957 279.6033 079.5053 14.01991287343039
0 FENGYUN 1C DEB
1 30766U 99025AUC 13284.93301990  .00000495  00000-0  34253-3 0  1102
2 30766 099.0920 333.3014 0089044 272.0363 087.0700 14.01994902343391
0 FENGYUN 1C DEB
1 30766U 99025AUC 13288.92950650  .00000662  00000-0  44825-3 0  1111
2 30766 099.0919 337.2856 0088993 260.4093 098.7454 14.02002994343958
0 FENGYUN 1C DEB
1 30766U 99025AUC 13291.35592586  .00000776  00000-0  51975-3 0  1123
2 30766 099.0892 339.6984 0089723 254.6325 104.5047 14.02009047344299
0 FENGYUN 1C DEB
1 30766U 99025AUC 13293.35415215  .00000868  00000-0  57819-3 0  1134
2 30766 099.0883 341.6855 0090113 249.2464 109.9216 14.02014365344575
0 FENGYUN 1C DEB
1 30766U 99025AUC 13295.35237465  .00001018  00000-0  67231-3 0  1143
2 30766 099.0902 343.6764 0090429 243.4267 115.8005 14.02020586344850
